ARIANE 40 R/B           
1 20443U 90005H   25360.15161458  .00000277  00000+0  10168-3 0  9998
2 20443  98.3226  57.9495 0011151  69.4487 290.7897 14.39807981882225
DELTA 2 R/B(1)          
1 20453U 90008B   25360.12021103  .00045530  00000+0  70310-3 0  9997
2 20453  35.6077 294.0589 0109731 299.7178  59.2672 15.46332437914705
COSMOS 2058             
1 20465U 90010A   25359.80793996  .00005199  00000+0  31289-3 0  9991
2 20465  82.4709 120.1774 0009540 223.2716 136.7766 15.10597923931081
SL-14 R/B               
1 20466U 90010B   25360.03328392  .00000493  00000+0  56967-4 0  9996
2 20466  82.5024 336.5612 0019791 177.9598 182.1701 14.83483382917562
SL-14 R/B               
1 20511U 90018B   25359.91270800  .00000532  00000+0  63908-4 0  9997
2 20511  82.5221 292.0530 0015854 340.2791  19.7808 14.82059962911652
HST                     
1 20580U 90037B   25359.85362654  .00006262  00000+0  21341-3 0  9996
2 20580  28.4656 183.2171 0002452  30.0168 330.0567 15.28210236762001
SL-16 R/B               
1 20625U 90046B   25359.68263130 -.00000113  00000+0 -33952-4 0  9999
2 20625  70.9992  93.3410 0012281  50.9763 309.2451 14.14997410837920
COSMOS 2084             
1 20663U 90055A   25360.05548925  .00002679  00000+0  19986-3 0  9999
2 20663  62.7887 226.6194 0029579 176.4208 183.7109 15.05094967925233
SL-6 R/B(2)             
1 20666U 90055D   25359.74009578  .00002624  00000+0  20754-3 0  9997
2 20666  62.7827 145.2403 0014252 317.7945  42.2056 15.03133991927072
SL-8 R/B                
1 20775U 90078B   25359.99468101  .00015522  00000+0  47893-3 0  9995
2 20775  82.9063 317.4415 0370039 261.2619  94.6531 14.86404679798343
SL-8 R/B                
1 21088U 91006B   25360.06444617  .00000105  00000+0  90186-4 0  9996
2 21088  82.9413 224.8016 0021310 240.2146 285.5074 13.77492658753937
OKEAN-3                 
1 21397U 91039A   25360.12004473  .00002570  00000+0  18281-3 0  9997
2 21397  82.5162  48.0953 0013642 214.6153 145.4187 15.04199324853975
COSMOS 2151             
1 21422U 91042A   25360.10089970  .00002289  00000+0  18308-3 0  9990
2 21422  82.4967 154.6268 0011500 312.7171  47.3084 14.99736058852160
SL-14 R/B               
1 21423U 91042B   25359.88277074  .00000475  00000+0  57066-4 0  9998
2 21423  82.4935 289.3992 0018400 120.8297 239.4730 14.81750548842149
ERS-1                   
1 21574U 91050A   25359.94469228  .00000328  00000+0  11960-3 0  9994
2 21574  98.7902  11.3295 0032894  62.0742 298.3769 14.39374656805122
ARIANE 40 R/B           
1 21610U 91050F   25360.10153965  .00000317  00000+0  10757-3 0  9994
2 21610  98.2147  50.0488 0002060 310.0837  50.0173 14.42823684808383
INTERCOSMOS 25          
1 21819U 91086A   25360.01024362  .00001875  00000+0  37333-3 0  9991
2 21819  82.6083 354.5483 1486305 275.7778  67.6310 12.11780248487761
SL-8 R/B                
1 21876U 92008B   25359.90561000  .00000131  00000+0  11898-3 0  9992
2 21876  82.9274 322.6532 0034343 343.1673  36.7936 13.75961867699275
SL-8 R/B                
1 21938U 92020B   25360.09006534  .00000137  00000+0  12548-3 0  9992
2 21938  82.9291 208.4037 0029728 141.3228 330.9656 13.75530558691010
USA 81                  
1 21949U 92023A   25360.02791948  .00000204  00000+0  68263-4 0  9991
2 21949  85.0080 173.9122 0001076  90.3070 269.8246 14.32331681 84243
COSMOS 2219             
1 22219U 92076A   25359.88213198  .00000361  00000+0  21422-3 0  9997
2 22219  71.0580 172.3589 0019404 308.8033  51.1356 14.14068487707948
SL-16 R/B               
1 22220U 92076B   25360.13597425  .00000004  00000+0  26044-4 0  9997
2 22220  71.0011 343.3123 0014125 216.2656 228.7648 14.16845678711411
COSMOS 2221             
1 22236U 92080A   25360.06331584  .00002407  00000+0  21284-3 0  9992
2 22236  82.5045 349.5713 0016333  81.2048 279.1023 14.95812276769788
SL-16 R/B               
1 22285U 92093B   25360.17155694 -.00000094  00000+0 -23583-4 0  9995
2 22285  71.0208 158.5998 0002599  29.1415 330.9852 14.15435346702758
COSMOS 2228             
1 22286U 92094A   25360.12773464  .00002637  00000+0  22753-3 0  9993
2 22286  82.5190 307.7243 0017650 183.9079 176.2009 14.96789872765058
SL-16 R/B               
1 22566U 93016B   25360.13398329  .00000254  00000+0  15484-3 0  9999
2 22566  71.0084   9.6712 0008041  71.0438 289.1555 14.15293346691766
COSMOS 2242             
1 22626U 93024A   25359.94504868  .00002442  00000+0  21417-3 0  9993
2 22626  82.5196 337.2219 0015984 187.1214 172.9783 14.96159546769367
SL-16 R/B               
1 22803U 93059B   25359.93095911  .00000304  00000+0  17418-3 0  9992
2 22803  70.9885 166.6689 0018607 317.0496  42.9173 14.17216397669084
ARIANE 40 R/B           
1 22830U 93061H   25360.16591854  .00000261  00000+0  11149-3 0  9996
2 22830  98.5059  65.4506 0011555 138.1483 222.0586 14.32810181683577
COSMOS 2278             
1 23087U 94023A   25360.11513194  .00000090  00000+0  71730-4 0  9999
2 23087  71.0535 329.0263 0007773 155.5439 204.6054 14.14348659634407
SL-16 R/B               
1 23088U 94023B   25360.05367617 -.00000227  00000+0 -92517-4 0  9990
2 23088  70.9975 225.5270 0002109   2.7967 357.3167 14.14999304635679
SL-16 R/B               
1 23343U 94074B   25360.06644889  .00000459  00000+0  68289-4 0  9994
2 23343  97.7189  28.8406 0008042  99.4357 314.6399 14.79304112676362
SL-16 R/B               
1 23405U 94077B   25359.85202021 -.00000202  00000+0 -78941-4 0  9993
2 23405  70.9822 147.8288 0005046 274.6288  85.4258 14.15552036605784
ARIANE 40+ R/B          
1 23561U 95021B   25360.14391104  .00000304  00000+0  11103-3 0  9998
2 23561  98.4633  67.5702 0006760  12.4944  17.6155 14.39705332608660
SL-16 R/B               
1 23705U 95058B   25360.13804198 -.00000125  00000+0 -39510-4 0  9995
2 23705  71.0217 334.6740 0014598 237.5911 122.3800 14.15481322557441
SL-16 R/B               
1 24298U 96051B   25360.15728938 -.00000011  00000+0  20996-4 0  9997
2 24298  70.7596 330.8823 0019473 244.9043 115.0056 14.12397638511265
ORBVIEW 2 (SEASTAR)     
1 24883U 97037A   25360.01995786  .00000299  00000+0  12029-3 0  9998
2 24883  98.8463 157.4292 0001215 282.0418  78.0630 14.35426208497907
SL-16 R/B               
1 25400U 98043G   25359.84899212  .00000075  00000+0  50222-4 0  9998
2 25400  98.8146 307.7417 0009028 224.4454 135.6002 14.26028400428460
SL-16 R/B               
1 25407U 98045B   25360.11451086  .00000281  00000+0  16594-3 0  9994
2 25407  71.0122 336.2991 0006151 154.3249 205.8181 14.16178699416689
ISS (ZARYA)             
1 25544U 98067A   25359.88993231  .00013933  00000+0  25321-3 0  9991
2 25544  51.6319  77.3524 0003235 301.5230  58.5443 15.49823805544896
CZ-4B R/B               
1 25732U 99025C   25360.15540516  .00000061  00000+0  50181-4 0  9992
2 25732  98.6751  41.1342 0036896 194.8547 235.6262 14.18246837377740
OKEAN-O                 
1 25860U 99039A   25360.10692634  .00000691  00000+0  97855-4 0  9991
2 25860  97.9584  55.6919 0001145 114.6371 245.4960 14.80183246423505
SL-16 R/B               
1 25861U 99039B   25360.15672494  .00000599  00000+0  82964-4 0  9991
2 25861  98.0108  54.3077 0015837 132.7988 227.4559 14.81605021425977
DELTA 2 R/B             
1 25876U 99041E   25360.02561094  .00001194  00000+0  23172-3 0  9996
2 25876  51.7601 235.4091 0504393 130.9209 233.6546 14.11435755352625
HELIOS 1B               
1 25977U 99064A   25359.72057164  .00002366  00000+0  26851-3 0  9995
2 25977  98.1748 254.7715 0000958  32.0133 328.1140 14.87332823674269
TERRA                   
1 25994U 99068A   25360.15840895  .00000452  00000+0  10137-3 0  9992
2 25994  97.9730  51.3492 0003393  67.7097 353.1976 14.60916328384340
SL-16 R/B               
1 26070U 00006B   25360.11079735  .00000183  00000+0  11705-3 0  9998
2 26070  71.0011 252.5440 0018598 290.5483  69.3644 14.15809253338140
TITAN 4B R/B            
1 26474U 00047B   25360.13367178  .00003596  00000+0  23235-3 0  9996
2 26474  67.9887 247.2367 0038006 128.0787 232.3800 15.08875274381817
ENVISAT                 
1 27386U 02009A   25352.94754304  .00000081  00000+0  39999-4 0  9991
2 27386  98.3609 303.5309 0001126  84.8976 298.2993 14.39001403247569
IDEFIX & ARIANE 42P R/B 
1 27422U 02021B   25359.79875209  .00000328  00000+0  14121-3 0  9997
2 27422  98.5803 294.3211 0012732  48.3783 311.8489 14.30959485233451
AQUA                    
1 27424U 02022A   25358.80455341  .00000926  00000+0  19561-3 0  9999
2 27424  98.4055 319.8810 0001809 102.1365 317.5475 14.61757572257795
CZ-4B R/B               
1 27432U 02024C   25360.15638747  .00000037  00000+0  42337-4 0  9995
2 27432  98.8980  48.8802 0049400 231.0846 192.8730 14.14530616218847
MIDORI II (ADEOS-II)    
1 27597U 02056A   25359.87699894  .00000297  00000+0  13473-3 0  9995
2 27597  98.7656 312.9034 0000857 145.9598 214.1638 14.29214255199757
H-2A R/B                
1 27601U 02056E   25359.80131543  .00000421  00000+0  16225-3 0  9993
2 27601  98.3086 318.0392 0070861  22.6991  38.3522 14.33687298203525
CZ-4B R/B               
1 28059U 03049C   25359.86876515  .00000442  00000+0  11295-3 0  9990
2 28059  98.6799 346.9292 0049388  96.8146 263.8673 14.54921629175860
CZ-2C R/B               
1 28222U 04012C   25360.11579867  .00039376  00000+0  55186-3 0  9998
2 28222  97.7392  53.8493 0016669 218.1238 141.8838 15.56512505192808
SL-16 R/B               
1 28353U 04021B   25360.12780159  .00000189  00000+0  12311-3 0  9995
2 28353  71.0004  26.8697 0004568 177.4810 182.6336 14.14580204112433
CZ-4B R/B               
1 28415U 04035C   25360.05638947  .00008460  00000+0  31176-3 0  9998
2 28415  97.3592  30.2227 0031791 227.9847 131.8685 15.27585108168664
CZ-2C R/B               
1 28480U 04046B   25359.79078110  .00000299  00000+0  12618-3 0  9993
2 28480  98.1997 274.3581 0139859  13.9108 346.5865 14.26948428 97960
